NORAD_CAT_ID,OBJECT_NAME,OBJECT_TYPE,EPOCH,MEAN_MOTION,ECCENTRICITY,INCLINATION,RA_OF_ASC_NODE,ARG_OF_PERICENTER,MEAN_ANOMALY,BSTAR,MEAN_MOTION_DOT,MEAN_MOTION_DDOT,TLE_LINE0,TLE_LINE1,TLE_LINE2,SEMIMAJOR_AXIS,PERIOD,APOGEE,PERIGEE,DECAYED
52871.0,STARLINK-4207,PAYLOAD,2024-03-24 02:31:33,15.08868,0.0001105,53.2172,346.5043,77.899,282.2126,0.0026398,0.00042007,0.0,0 STARLINK-4207,1 52871U 22062AT  24084.10524899  .00042007  00000-0  26398-2 0  9994,2 52871  53.2172 346.5043 0001105  77.8990 282.2126 15.08868000 98520,6917.795,95.436,540.424,538.895,0.0
52871.0,STARLINK-4207,PAYLOAD,2024-03-24 10:28:29,15.088409,0.0001217,53.2171,345.0176,87.477,272.6362,0.00078763,0.0001227,0.0,0 STARLINK-4207,1 52871U 22062AT  24084.43645428  .00012270  00000-0  78763-3 0  9995,2 52871  53.2171 345.0176 0001217  87.4770 272.6362 15.08840900 98576,6917.878,95.437,540.585,538.901,0.0
52871.0,STARLINK-4207,PAYLOAD,2024-03-24 21:36:11,15.08882383,0.000303,53.2167,342.9364,150.4327,209.6837,0.0048713,0.00078194,0.0,0 STARLINK-4207,1 52871U 22062AT  24084.90013872  .00078194  00000-0  48713-2 0  9997,2 52871  53.2167 342.9364 0003030 150.4327 209.6837 15.08882383 98152,6917.751,95.435,541.712,537.52,0.0
52871.0,STARLINK-4207,PAYLOAD,2024-03-25 02:22:21,15.08879746,0.0001132,53.2164,342.0444,105.1114,255.0003,0.0085732,0.0013901,0.0,0 STARLINK-4207,1 52871U 22062AT  24085.09886458  .00139010  00000-0  85732-2 0  9993,2 52871  53.2164 342.0444 0001132 105.1114 255.0003 15.08879746 98677,6917.759,95.435,540.407,538.841,0.0
52871.0,STARLINK-4207,PAYLOAD,2024-03-25 10:19:16,15.08903424,0.0001504,53.2163,340.5578,97.3724,262.7439,0.0040767,0.00065308,0.0,0 STARLINK-4207,1 52871U 22062AT  24085.43005613  .00065308  00000-0  40767-2 0  9994,2 52871  53.2163 340.5578 0001504  97.3724 262.7439 15.08903424 98724,6917.687,95.434,540.592,538.511,0.0
52871.0,STARLINK-4207,PAYLOAD,2024-03-25 21:26:59,15.08880782,0.0002228,53.2164,338.4751,87.7551,272.3696,0.0020836,0.00033066,0.0,0 STARLINK-4207,1 52871U 22062AT  24085.89373895  .00033066  00000-0  20836-2 0  9995,2 52871  53.2164 338.4751 0002228  87.7551 272.3696 15.08880782 98799,6917.756,95.435,541.162,538.079,0.0
52871.0,STARLINK-4207,PAYLOAD,2024-03-26 10:10:03,15.0886581,0.0001061,53.2172,336.0956,128.2319,231.8769,0.001311,0.00020653,0.0,0 STARLINK-4207,1 52871U 22062AT  24086.42365007  .00020653  00000-0  13110-2 0  9996,2 52871  53.2172 336.0956 0001061 128.2319 231.8769 15.08865810 98871,6917.801,95.436,540.4,538.933,0.0
52871.0,STARLINK-4207,PAYLOAD,2024-03-26 21:17:45,15.08832151,0.0001749,53.2181,334.0119,129.0512,231.0636,-0.00027258,-4.623e-05,0.0,0 STARLINK-4207,1 52871U 22062AT  24086.88733594 -.00004623  00000-0 -27258-3 0  9996,2 52871  53.2181 334.0119 0001749 129.0512 231.0636 15.08832151 98942,6917.904,95.438,540.979,538.559,0.0
52871.0,STARLINK-4207,PAYLOAD,2024-03-26 22:53:09,15.08834327,0.0001866,53.2182,333.713,123.1745,236.9426,-0.00028461,-4.814e-05,0.0,0 STARLINK-4207,1 52871U 22062AT  24086.95357652 -.00004814  00000-0 -28461-3 0  9990,2 52871  53.2182 333.7130 0001866 123.1745 236.9426 15.08834327 98460,6917.898,95.438,541.054,538.472,0.0
52871.0,STARLINK-4207,PAYLOAD,2024-03-27 10:00:51,15.08831804,0.0001844,53.218,331.6318,123.9832,236.1335,0.00044105,6.737e-05,0.0,0 STARLINK-4207,1 52871U 22062AT  24087.41726218  .00006737  00000-0  44105-3 0  9997,2 52871  53.2180 331.6318 0001844 123.9832 236.1335 15.08831804 98530,6917.905,95.438,541.046,538.495,0.0
52871.0,STARLINK-4207,PAYLOAD,2024-03-27 21:08:32,15.08873539,0.0002686,53.2192,329.5506,138.0281,222.0918,0.0013199,0.000208,0.0,0 STARLINK-4207,1 52871U 22062AT  24087.88093202  .00020800  00000-0  13199-2 0  9993,2 52871  53.2192 329.5506 0002686 138.0281 222.0918 15.08873539 99092,6917.778,95.435,541.501,537.785,0.0
52871.0,STARLINK-4207,PAYLOAD,2024-03-27 22:43:55,15.08878885,0.0001067,53.2189,329.2526,110.9471,249.1636,0.0016138,0.00025516,0.0,0 STARLINK-4207,1 52871U 22062AT  24087.94717182  .00025516  00000-0  16138-2 0  9995,2 52871  53.2189 329.2526 0001067 110.9471 249.1636 15.08878885 98612,6917.762,95.435,540.365,538.888,0.0
52871.0,STARLINK-4207,PAYLOAD,2024-03-28 22:34:43,15.0884272,6.9e-05,53.2182,324.7945,11.515,348.5857,0.00012763,1.744e-05,0.0,0 STARLINK-4207,1 52871U 22062AT  24088.94077712  .00001744  00000-0  12763-3 0  9992,2 52871  53.2182 324.7945 0000690  11.5150 348.5857 15.08842720 98765,6917.872,95.437,540.214,539.26,0.0
52871.0,STARLINK-4207,PAYLOAD,2024-03-29 01:45:29,15.08845087,0.0001472,53.2187,324.2031,75.3457,284.7698,8.7367e-05,1.103e-05,0.0,0 STARLINK-4207,1 52871U 22062AT  24089.07325673  .00001103  00000-0  87367-4 0  9991,2 52871  53.2187 324.2031 0001472  75.3457 284.7698 15.08845087 99278,6917.865,95.437,540.748,538.712,0.0
52871.0,STARLINK-4207,PAYLOAD,2024-03-29 08:07:02,15.08832244,0.000119,53.2182,323.0112,80.5323,279.5803,-0.0002321,-3.979e-05,0.0,0 STARLINK-4207,1 52871U 22062AT  24089.33822060 -.00003979  00000-0 -23210-3 0  9993,2 52871  53.2182 323.0112 0001190  80.5323 279.5803 15.08832244 99313,6917.904,95.438,540.592,538.946,0.0
52871.0,STARLINK-4207,PAYLOAD,2024-03-29 22:25:30,15.08845544,0.000146,53.2182,320.3362,76.4967,283.6187,0.00048378,7.421e-05,0.0,0 STARLINK-4207,1 52871U 22062AT  24089.93438007  .00007421  00000-0  48378-3 0  9999,2 52871  53.2182 320.3362 0001460  76.4967 283.6187 15.08845544 98911,6917.863,95.437,540.738,538.718,0.0
52871.0,STARLINK-4207,PAYLOAD,2024-03-30 01:36:16,15.0885885,0.0001466,53.2179,319.7409,74.4726,285.6428,0.00084756,0.00013234,0.0,0 STARLINK-4207,1 52871U 22062AT  24090.06685739  .00013234  00000-0  84756-3 0  9990,2 52871  53.2179 319.7409 0001466  74.4726 285.6428 15.08858850 99429,6917.823,95.436,540.702,538.674,0.0
52871.0,STARLINK-4207,PAYLOAD,2024-03-30 07:57:49,15.08824834,7.19e-05,53.2158,318.5523,85.9311,274.1763,0.00067222,0.00010422,0.0,0 STARLINK-4207,1 52871U 22062AT  24090.33182259  .00010422  00000-0  67222-3 0  9994,2 52871  53.2158 318.5523 0000719  85.9311 274.1763 15.08824834 99461,6917.927,95.439,540.289,539.294,0.0
52871.0,STARLINK-4207,PAYLOAD,2024-03-30 22:16:17,15.08843141,0.0001221,53.216,315.8751,68.9569,291.1554,0.00036194,5.478e-05,0.0,0 STARLINK-4207,1 52871U 22062AT  24090.92798331  .00005478  00000-0  36194-3 0  9992,2 52871  53.2160 315.8751 0001221  68.9569 291.1554 15.08843141 99067,6917.871,95.437,540.58,538.891,0.0
52871.0,STARLINK-4207,PAYLOAD,2024-03-31 07:48:36,15.08853139,0.0001153,53.2157,314.0914,80.5834,279.5288,0.00068535,0.0001064,0.0,0 STARLINK-4207,1 52871U 22062AT  24091.32542179  .00010640  00000-0  68535-3 0  9995,2 52871  53.2157 314.0914 0001153  80.5834 279.5288 15.08853139 99123,6917.84,95.437,540.503,538.908,0.0
52871.0,STARLINK-4207,PAYLOAD,2024-03-31 20:31:41,15.08846963,0.0001223,53.2162,311.7136,89.0919,271.0213,0.00044469,6.798e-05,0.0,0 STARLINK-4207,1 52871U 22062AT  24091.85534213  .00006798  00000-0  44469-3 0  9992,2 52871  53.2162 311.7136 0001223  89.0919 271.0213 15.08846963 99699,6917.859,95.437,540.57,538.878,0.0
52871.0,STARLINK-4207,PAYLOAD,2024-03-31 22:07:04,15.08848974,0.0001244,53.2162,311.4162,87.8227,272.2908,0.00049239,7.559e-05,0.0,0 STARLINK-4207,1 52871U 22062AT  24091.92158161  .00007559  00000-0  49239-3 0  9990,2 52871  53.2162 311.4162 0001244  87.8227 272.2908 15.08848974 99212,6917.853,95.437,540.579,538.857,0.0
52871.0,STARLINK-4207,PAYLOAD,2024-04-01 20:22:28,15.08841252,0.0001233,53.2167,307.2536,90.6351,269.4782,0.00018258,2.619e-05,0.0,0 STARLINK-4207,1 52871U 22062AT  24092.84894427  .00002619  00000-0  18258-3 0  9993,2 52871  53.2167 307.2536 0001233  90.6351 269.4782 15.08841252 99842,6917.877,95.437,540.595,538.889,0.0
52871.0,STARLINK-4207,PAYLOAD,2024-04-02 07:30:10,15.08837751,0.0001219,53.2166,305.1707,85.7127,274.4005,0.00012139,1.644e-05,0.0,0 STARLINK-4207,1 52871U 22062AT  24093.31262570  .00001644  00000-0  12139-3 0  9993,2 52871  53.2166 305.1707 0001219  85.7127 274.4005 15.08837751 99425,6917.887,95.438,540.596,538.909,0.0
52871.0,STARLINK-4207,PAYLOAD,2024-04-02 20:13:16,15.0883832,0.000117,53.2167,302.7907,96.2078,263.9048,0.0001394,1.931e-05,0.0,0 STARLINK-4207,1 52871U 22062AT  24093.84254711  .00001931  00000-0  13940-3 0  9999,2 52871  53.2167 302.7907 0001170  96.2078 263.9048 15.08838320 99994,6917.886,95.438,540.56,538.941,0.0
52871.0,STARLINK-4207,PAYLOAD,2024-04-03 13:42:30,15.08840593,0.000127,53.2164,299.5191,97.5277,262.5859,0.00015424,2.168e-05,0.0,0 STARLINK-4207,1 52871U 22062AT  24094.57118833  .00002168  00000-0  15424-3 0  9996,2 52871  53.2164 299.5191 0001270  97.5277 262.5859 15.08840593 99614,6917.879,95.438,540.622,538.865,0.0
52871.0,STARLINK-4207,PAYLOAD,2024-04-03 20:04:03,15.0884269,0.0001258,53.2168,298.3301,94.067,266.0466,0.00013632,1.882e-05,0.0,0 STARLINK-4207,1 52871U 22062AT  24094.83614750  .00001882  00000-0  13632-3 0  9995,2 52871  53.2168 298.3301 0001258  94.0670 266.0466 15.08842690 99650,6917.872,95.437,540.607,538.867,0.0
52871.0,STARLINK-4207,PAYLOAD,2024-04-03 23:14:49,15.08844399,0.0001266,53.2165,297.7356,92.7141,267.3996,0.00016438,2.329e-05,0.0,0 STARLINK-4207,1 52871U 22062AT  24094.96862674  .00002329  00000-0  16438-3 0  9993,2 52871  53.2165 297.7356 0001266  92.7141 267.3996 15.08844399100166,6917.867,95.437,540.608,538.856,0.0
52871.0,STARLINK-4207,PAYLOAD,2024-04-04 19:54:49,15.08846258,0.0001223,53.2163,293.8697,89.9526,270.1606,0.0001487,2.08e-05,0.0,0 STARLINK-4207,1 52871U 22062AT  24095.82974492  .00002080  00000-0  14870-3 0  9993,2 52871  53.2163 293.8697 0001223  89.9526 270.1606 15.08846258 99801,6917.861,95.437,540.572,538.88,0.0
52871.0,STARLINK-4207,PAYLOAD,2024-04-05 13:24:05,15.08823063,0.0001276,53.2168,290.5985,93.0799,267.034,-0.00015379,-2.733e-05,0.0,0 STARLINK-4207,1 52871U 22062AT  24096.55840004 -.00002733  00000-0 -15379-3 0  9997,2 52871  53.2168 290.5985 0001276  93.0799 267.0340 15.08823063100404,6917.932,95.439,540.68,538.914,0.0
